OBJECT_NAME,OBJECT_ID,EPOCH,MEAN_MOTION,ECCENTRICITY,INCLINATION,RA_OF_ASC_NODE,ARG_OF_PERICENTER,MEAN_ANOMALY,EPHEMERIS_TYPE,CLASSIFICATION_TYPE,NORAD_CAT_ID,ELEMENT_SET_NO,REV_AT_EPOCH,BSTAR,MEAN_MOTION_DOT,MEAN_MOTION_DDOT
GPS BIIR-5  (PRN 22),2000-040A,2026-07-04T17:22:39.622080,2.00557820,.0120731,54.8496,214.4657,302.6201,43.3862,0,U,26407,999,19029,0,.73E-6,0
GPS BIIR-8  (PRN 16),2003-005A,2026-07-04T01:31:03.707904,2.00559687,.0148096,54.8802,214.2982,53.1273,311.8752,0,U,27663,999,17165,0,.7E-6,0
GPS BIIR-11 (PRN 19),2004-009A,2026-07-04T08:09:23.098752,2.00554193,.01167937,54.8153,274.9939,173.8654,183.6312,0,U,28190,999,16328,0,-.2E-6,0
GPS BIIR-13 (PRN 02),2004-045A,2026-07-04T17:57:37.905696,2.00556723,.01700172,55.1251,324.1893,316.8171,40.6346,0,U,28474,999,15877,0,-.69E-6,0
GPS BIIRM-1 (PRN 17),2005-038A,2026-07-04T20:10:06.502656,2.00564490,.01280954,54.8637,272.4647,296.3016,91.8878,0,U,28874,999,15219,0,-.17E-6,0
INMARSAT 4-F2 (SOUTHPAN/PRN 122),2005-044A,2026-07-04T12:51:27.002880,1.00270872,.00031405,5.1161,43.6573,51.2893,163.9427,0,U,28899,999,7569,0,-.25E-5,0
GPS BIIRM-2 (PRN 31),2006-042A,2026-07-03T23:04:14.106432,2.00568922,.01069041,54.7124,150.6730,54.8465,317.3501,0,U,29486,999,14473,0,.65E-6,0
GPS BIIRM-3 (PRN 12),2006-052A,2026-07-03T08:57:32.853024,2.00559084,.00848467,54.9335,213.3645,90.9431,270.0924,0,U,29601,999,14373,0,.68E-6,0
GPS BIIRM-4 (PRN 15),2007-047A,2026-07-03T16:17:16.833984,2.00554541,.016739,54.1070,79.3861,87.7383,274.2267,0,U,32260,999,13714,0,-.21E-6,0
COSMOS 2433 (720),2007-052A,2026-07-04T06:40:33.460320,2.13104425,.0003097,65.5660,315.3584,199.8215,160.1742,0,U,32275,999,14542,0,-.44E-6,0
COSMOS 2432 (719),2007-052B,2026-07-04T02:45:12.820608,2.13103452,.00074607,65.5822,315.4920,326.1716,212.2631,0,U,32276,999,14544,0,-.44E-6,0
GPS BIIRM-5 (PRN 29),2007-062A,2026-07-04T11:59:38.743872,2.00561107,.0035951,55.0179,273.4562,166.7855,193.7684,0,U,32384,999,13586,0,-.18E-6,0
COSMOS 2434 (721),2007-065A,2026-07-03T11:15:16.035840,2.13101308,.00012873,64.3197,191.3666,326.1242,22.8128,0,U,32393,999,14411,0,.87E-6,0
COSMOS 2436 (723),2007-065C,2026-07-04T22:58:14.056896,2.13100233,.00172829,64.3280,191.3887,353.5770,189.2723,0,U,32395,999,14410,0,.99E-6,0
GPS BIIRM-6 (PRN 07),2008-012A,2026-07-04T14:03:11.333376,2.00572893,.02115594,54.4993,149.2298,248.0405,109.6732,0,U,32711,999,13410,0,.69E-6,0
GPS BIIRM-8 (PRN 05),2009-043A,2026-07-04T07:27:52.871040,2.00553427,.00538025,56.2210,26.7798,83.9260,86.3327,0,U,35752,999,12370,0,-.59E-6,0
COSMOS 2456 (730),2009-070A,2026-07-02T16:05:51.136800,2.13103720,.00038355,65.0199,70.4441,338.5659,276.2480,0,U,36111,999,12875,0,-.11E-6,0
COSMOS 2457 (733),2009-070B,2026-07-04T18:08:59.559360,2.13101378,.00036339,65.0071,70.2163,124.1851,57.8253,0,U,36112,999,12880,0,-.12E-6,0
COSMOS 2460 (732),2010-007C,2026-07-04T23:58:47.711712,2.13101962,.00018924,65.4092,313.8639,127.0261,243.3018,0,U,36402,999,12711,0,-.43E-6,0
GPS BIIF-1  (PRN 25),2010-022A,2026-07-04T03:52:51.782880,2.00563270,.01265208,54.2694,207.8783,66.1429,115.6659,0,U,36585,999,11793,0,.75E-6,0
BEIDOU-2 IGSO-1 (C06),2010-036A,2026-07-04T23:28:44.807232,1.00267280,.00591838,54.3059,162.7991,225.2498,354.5072,0,U,36828,999,5827,0,-.73E-6,0
BEIDOU-2 G4 (C04),2010-057A,2026-07-04T22:30:28.200096,1.00271232,.00049627,3.6882,68.8413,187.4160,164.2739,0,U,37210,999,5746,0,-.101E-5,0
BEIDOU-2 IGSO-2 (C07),2010-068A,2026-07-04T18:52:36.264576,1.00277550,.00566128,47.5153,271.6140,213.9633,188.6395,0,U,37256,999,5697,0,-.194E-5,0
BEIDOU-2 IGSO-3 (C08),2011-013A,2026-07-04T23:22:18.018624,1.00263911,.00352404,62.4314,39.9847,183.4155,157.1705,0,U,37384,999,5583,0,-.165E-5,0
GSAT-8 (GAGAN/PRN 127),2011-022A,2026-07-04T12:26:22.423776,1.00271356,.00021287,2.1730,81.6229,166.7757,275.8147,0,U,37605,999,5339,0,.96E-6,0
BEIDOU-2 IGSO-4 (C09),2011-038A,2026-07-04T23:27:26.858016,1.00281969,.015995,54.6038,165.5148,231.4052,331.9664,0,U,37763,999,5482,0,.36E-6,0
GSAT0101 (GALILEO-PFM),2011-060A,2026-07-03T06:32:47.607936,1.70475789,.00026569,56.9888,341.3256,57.8189,302.2010,0,U,37846,999,9139,0,-.76E-6,0
GSAT0102 (GALILEO-FM2),2011-060B,2026-07-03T18:53:16.727424,1.70476028,.00025222,56.9894,341.3121,12.9231,348.3249,0,U,37847,999,9141,0,-.75E-6,0
COSMOS 2476 (744),2011-064A,2026-07-03T15:11:25.405152,2.13104036,.0022386,65.2791,72.3163,237.0520,304.2644,0,U,37867,999,11411,0,-.8E-7,0
COSMOS 2477 (745),2011-064B,2026-07-04T19:43:57.796608,2.13103228,.00194457,65.2859,72.3558,238.0164,315.9569,0,U,37868,999,11413,0,-.1E-6,0
COSMOS 2475 (743),2011-064C,2026-07-04T20:46:19.644096,2.13102062,.00251655,65.2932,72.3759,251.8543,290.3901,0,U,37869,999,11414,0,-.11E-6,0
